{
"type": "FeatureCollection",
"name": "sydney_anef_zones",
"crs": { "type": "name", "properties": { "name": "urn:ogc:def:crs:OGC:1.3:CRS84" } },
"features": [
{ "type": "Feature", "properties": { "anef_level": 20, "airport": "Sydney (YSSY)", "version": "ANEF 2039", "zone_type": "conditional" }, "geometry": { "type": "Polygon", "coordinates": [ [ [ 151.06, -33.9 ], [ 151.08, -33.81 ], [ 151.13, -33.72 ], [ 151.17, -33.69 ], [ 151.21, -33.7 ], [ 151.26, -33.78 ], [ 151.29, -33.88 ], [ 151.28, -34.0 ], [ 151.24, -34.13 ], [ 151.19, -34.17 ], [ 151.14, -34.12 ], [ 151.08, -34.02 ], [ 151.06, -33.9 ] ] ] } },
{ "type": "Feature", "properties": { "anef_level": 25, "airport": "Sydney (YSSY)", "version": "ANEF 2039", "zone_type": "conditional" }, "geometry": { "type": "Polygon", "coordinates": [ [ [ 151.09, -33.91 ], [ 151.11, -33.84 ], [ 151.15, -33.77 ], [ 151.18, -33.75 ], [ 151.21, -33.76 ], [ 151.25, -33.82 ], [ 151.27, -33.9 ], [ 151.26, -33.98 ], [ 151.22, -34.09 ], [ 151.185, -34.12 ], [ 151.15, -34.08 ], [ 151.1, -34.0 ], [ 151.09, -33.91 ] ] ] } },
{ "type": "Feature", "properties": { "anef_level": 30, "airport": "Sydney (YSSY)", "version": "ANEF 2039", "zone_type": "unacceptable" }, "geometry": { "type": "Polygon", "coordinates": [ [ [ 151.11, -33.92 ], [ 151.13, -33.87 ], [ 151.165, -33.82 ], [ 151.185, -33.81 ], [ 151.22, -33.85 ], [ 151.25, -33.91 ], [ 151.24, -33.97 ], [ 151.21, -34.05 ], [ 151.185, -34.07 ], [ 151.155, -34.03 ], [ 151.12, -33.98 ], [ 151.11, -33.92 ] ] ] } },
{ "type": "Feature", "properties": { "anef_level": 35, "airport": "Sydney (YSSY)", "version": "ANEF 2039", "zone_type": "unacceptable" }, "geometry": { "type": "Polygon", "coordinates": [ [ [ 151.13, -33.93 ], [ 151.15, -33.9 ], [ 151.175, -33.87 ], [ 151.19, -33.86 ], [ 151.21, -33.88 ], [ 151.23, -33.92 ], [ 151.22, -33.96 ], [ 151.2, -34.01 ], [ 151.185, -34.02 ], [ 151.165, -34.0 ], [ 151.14, -33.97 ], [ 151.13, -33.93 ] ] ] } },
{ "type": "Feature", "properties": { "anef_level": 40, "airport": "Sydney (YSSY)", "version": "ANEF 2039", "zone_type": "unacceptable" }, "geometry": { "type": "Polygon", "coordinates": [ [ [ 151.145, -33.935 ], [ 151.16, -33.92 ], [ 151.18, -33.905 ], [ 151.2, -33.92 ], [ 151.215, -33.94 ], [ 151.2, -33.97 ], [ 151.18, -33.99 ], [ 151.16, -33.975 ], [ 151.145, -33.955 ], [ 151.145, -33.935 ] ] ] } }
]
}
